{"epoch":1784710044,"count":18256,"objects":[{"id":"67886","name":"STARLINK-36390","type":"PAYLOAD","l1":"1 67886U 26035H   26202.32023884  .00014721  00000-0  45731-3 0  9991","l2":"2 67886  97.2822 134.9801 0001344 106.7267 253.4124 15.33451199 24462"},{"id":"67887","name":"STARLINK-36368","type":"PAYLOAD","l1":"1 67887U 26035J   26202.55134936  .00018653  00000-0  57829-3 0  9997","l2":"2 67887  97.2833 135.2804 0001894  88.2071 271.9388 15.33465660 24509"},{"id":"67888","name":"STARLINK-36801","type":"PAYLOAD","l1":"1 67888U 26035K   26202.35830284  .00015896  00000-0  49348-3 0  9998","l2":"2 67888  97.2824 135.0815 0001198 118.7738 241.3625 15.33457263 24477"},{"id":"67889","name":"STARLINK-36372","type":"PAYLOAD","l1":"1 67889U 26035L   26202.36374546  .00010881  00000-0  33878-3 0  9994","l2":"2 67889  97.2822 135.0759 0002813 111.9904 248.1638 15.33451242 24478"},{"id":"67890","name":"STARLINK-36363","type":"PAYLOAD","l1":"1 67890U 26035M   26202.31480351  .00008793  00000-0  27433-3 0  9992","l2":"2 67890  97.2828 134.9884 0001645  97.3293 262.8137 15.33447834 24461"},{"id":"67891","name":"STARLINK-36816","type":"PAYLOAD","l1":"1 67891U 26035N   26202.32966439  .00044993  00000-0  13870-2 0  9991","l2":"2 67891  97.2822 134.0578 0002502  92.2781 267.8748 15.33458794 24400"},{"id":"67892","name":"STARLINK-36813","type":"PAYLOAD","l1":"1 67892U 26035P   26202.33113976  .00020304  00000-0  62985-3 0  9995","l2":"2 67892  97.2827 135.1226 0002259  95.2411 264.9090 15.33428091 24472"},{"id":"67893","name":"STARLINK-36803","type":"PAYLOAD","l1":"1 67893U 26035Q   26202.33927319 -.00003426  00000-0 -10385-3 0  9995","l2":"2 67893  97.2832 135.1072 0002739 135.1067 225.0398 15.33434732 24470"},{"id":"67894","name":"STARLINK-36846","type":"PAYLOAD","l1":"1 67894U 26035R   26202.31752324  .00016940  00000-0  52575-3 0  9996","l2":"2 67894  97.2846 134.9839 0002245 100.3288 259.8208 15.33450889 24460"},{"id":"67895","name":"STARLINK-36866","type":"PAYLOAD","l1":"1 67895U 26035S   26202.30664650  .00014998  00000-0  46585-3 0  9995","l2":"2 67895  97.2836 135.0000 0001180  69.7133 290.4237 15.33453652 24460"},{"id":"67896","name":"STARLINK-36877","type":"PAYLOAD","l1":"1 67896U 26035T   26202.34470932  .00022116  00000-0  68471-3 0  9997","l2":"2 67896  97.2795 135.1020 0001368  90.0793 270.0606 15.33474436 24473"},{"id":"67897","name":"STARLINK-36870","type":"PAYLOAD","l1":"1 67897U 26035U   26202.35014711  .00010817  00000-0  33680-3 0  9997","l2":"2 67897  97.2836 135.0952 0002121 116.9303 243.2157 15.33454369 24472"},{"id":"67898","name":"STARLINK-36810","type":"PAYLOAD","l1":"1 67898U 26035V   26202.36102588  .00012224  00000-0  38023-3 0  9999","l2":"2 67898  97.2816 135.0796 0002430 101.5300 258.6215 15.33453078 24478"},{"id":"67899","name":"STARLINK-36878","type":"PAYLOAD","l1":"1 67899U 26035W   26202.33383578  .00013121  00000-0  40784-3 0  9991","l2":"2 67899  97.2825 135.1120 0002146  70.9985 289.1490 15.33459207 24477"},{"id":"67900","name":"STARLINK-36361","type":"PAYLOAD","l1":"1 67900U 26035X   26202.33655158  .00012346  00000-0  38403-3 0  9993","l2":"2 67900  97.2826 135.1129 0001549  99.2438 260.8980 15.33452061 24474"},{"id":"67901","name":"STARLINK-36336","type":"PAYLOAD","l1":"1 67901U 26035Y   26202.54863396  .00028677  00000-0  88691-3 0  9990","l2":"2 67901  97.2824 135.2827 0001739  92.8360 267.3081 15.33455809 24504"},{"id":"67902","name":"STARLINK-36876","type":"PAYLOAD","l1":"1 67902U 26035Z   26202.53775548  .00009138  00000-0  28496-3 0  9999","l2":"2 67902  97.2827 135.3004 0001439  88.4838 271.6569 15.33452357 24508"},{"id":"67903","name":"STARLINK-36257","type":"PAYLOAD","l1":"1 67903U 26035AA  26202.30936265  .00004626  00000-0  14553-3 0  9996","l2":"2 67903  97.2830 134.9961 0002255 135.6345 224.5079 15.33444306 24468"},{"id":"67904","name":"STARLINK-36814","type":"PAYLOAD","l1":"1 67904U 26036A   26202.38026420  .00011086  00000-0  41155-3 0  9995","l2":"2 67904  42.9972 210.6824 0001124 300.5955  59.4785 15.27596664 24161"},{"id":"67905","name":"STARLINK-36729","type":"PAYLOAD","l1":"1 67905U 26036B   26202.31230576  .00009769  00000-0  36392-3 0  9990","l2":"2 67905  42.9995 211.0153 0001191 275.4460  84.6256 15.27591284 24157"},{"id":"67906","name":"STARLINK-36763","type":"PAYLOAD","l1":"1 67906U 26036C   26202.30844966  .00010554  00000-0  39240-3 0  9993","l2":"2 67906  42.9993 210.9847 0001431 277.7646  82.3044 15.27587129 24155"},{"id":"67907","name":"STARLINK-36742","type":"PAYLOAD","l1":"1 67907U 26036D   26202.36998505  .00012074  00000-0  44742-3 0  9991","l2":"2 67907  42.9999 210.5858 0000757 306.5503  53.5279 15.27589743 24168"},{"id":"67908","name":"STARLINK-36827","type":"PAYLOAD","l1":"1 67908U 26036E   26202.36612468  .00008638  00000-0  32299-3 0  9998","l2":"2 67908  42.9991 210.5492 0002290 282.0819  77.9776 15.27587207 24162"},{"id":"67909","name":"STARLINK-36822","type":"PAYLOAD","l1":"1 67909U 26036F   26202.42765532  .00015627  00000-0  57611-3 0  9998","l2":"2 67909  43.0002 210.1567 0002119 261.9924  98.0687 15.27583853 24179"},{"id":"67910","name":"STARLINK-36847","type":"PAYLOAD","l1":"1 67910U 26036G   26202.09687042  .00008442  00000-0  31591-3 0  9998","l2":"2 67910  43.0014 211.9736 0001846 276.0018  84.0623 15.27582616 24124"},{"id":"67911","name":"STARLINK-36736","type":"PAYLOAD","l1":"1 67911U 26036H   26202.41737180  .00011813  00000-0  43801-3 0  9997","l2":"2 67911  43.0023 210.0679 0003020 252.7107 107.3414 15.27585269 24176"},{"id":"67912","name":"STARLINK-36676","type":"PAYLOAD","l1":"1 67912U 26036J   26202.34814522  .00013002  00000-0  48095-3 0  9998","l2":"2 67912  43.0043 210.4115 0001988 284.8294  75.2338 15.27594173 24163"},{"id":"67913","name":"STARLINK-36690","type":"PAYLOAD","l1":"1 67913U 26036K   26202.34427863  .00013306  00000-0  49204-3 0  9997","l2":"2 67913  43.0043 210.3793 0002126 294.8213  65.2417 15.27590303 24160"},{"id":"67914","name":"STARLINK-36724","type":"PAYLOAD","l1":"1 67914U 26036L   26202.07245182  .00015081  00000-0  55622-3 0  9993","l2":"2 67914  42.9990 211.7741 0001145 212.2058 147.8724 15.27591836 24125"},{"id":"67915","name":"STARLINK-36723","type":"PAYLOAD","l1":"1 67915U 26036M   26202.40580940  .00010307  00000-0  38343-3 0  9992","l2":"2 67915  43.0063 209.9738 0002375 276.2473  83.8108 15.27589008 24179"}]}