OBJECT_NAME,OBJECT_ID,EPOCH,MEAN_MOTION,ECCENTRICITY,INCLINATION,RA_OF_ASC_NODE,ARG_OF_PERICENTER,MEAN_ANOMALY,EPHEMERIS_TYPE,CLASSIFICATION_TYPE,NORAD_CAT_ID,ELEMENT_SET_NO,REV_AT_EPOCH,BSTAR,MEAN_MOTION_DOT,MEAN_MOTION_DDOT
STARLINK-36390,2026-035H,2026-07-21T07:41:08.635776,15.33451199,.00013439,97.2822,134.9801,106.7267,253.4124,0,U,67886,999,2446,.45731423E-3,.14721E-3,0
STARLINK-36368,2026-035J,2026-07-21T13:13:56.584704,15.33465660,.00018941,97.2833,135.2804,88.2071,271.9388,0,U,67887,999,2450,.57829364E-3,.18653E-3,0
STARLINK-36801,2026-035K,2026-07-21T08:35:57.365376,15.33457263,.00011981,97.2824,135.0815,118.7738,241.3625,0,U,67888,999,2447,.49348138E-3,.15896E-3,0
STARLINK-36372,2026-035L,2026-07-21T08:43:47.607744,15.33451242,.00028126,97.2822,135.0759,111.9904,248.1638,0,U,67889,999,2447,.3387755E-3,.10881E-3,0
STARLINK-36363,2026-035M,2026-07-21T07:33:19.023264,15.33447834,.00016449,97.2828,134.9884,97.3293,262.8137,0,U,67890,999,2446,.27433485E-3,.8793E-4,0
STARLINK-36816,2026-035N,2026-07-21T07:54:43.003296,15.33458794,.00025016,97.2822,134.0578,92.2781,267.8748,0,U,67891,999,2440,.13870252E-2,.44993E-3,0
STARLINK-36813,2026-035P,2026-07-21T07:56:50.475264,15.33428091,.00022591,97.2827,135.1226,95.2411,264.9090,0,U,67892,999,2447,.62984941E-3,.20304E-3,0
STARLINK-36803,2026-035Q,2026-07-21T08:08:33.203616,15.33434732,.00027388,97.2832,135.1072,135.1067,225.0398,0,U,67893,999,2447,-.10385172E-3,-.3426E-4,0
STARLINK-36846,2026-035R,2026-07-21T07:37:14.007936,15.33450889,.0002245,97.2846,134.9839,100.3288,259.8208,0,U,67894,999,2446,.52575139E-3,.1694E-3,0
STARLINK-36866,2026-035S,2026-07-21T07:21:34.257600,15.33453652,.00011804,97.2836,135.0000,69.7133,290.4237,0,U,67895,999,2446,.46584602E-3,.14998E-3,0
STARLINK-36877,2026-035T,2026-07-21T08:16:22.885248,15.33474436,.00013683,97.2795,135.1020,90.0793,270.0606,0,U,67896,999,2447,.68471328E-3,.22116E-3,0
STARLINK-36870,2026-035U,2026-07-21T08:24:12.710304,15.33454369,.0002121,97.2836,135.0952,116.9303,243.2157,0,U,67897,999,2447,.33680308E-3,.10817E-3,0
STARLINK-36810,2026-035V,2026-07-21T08:39:52.636032,15.33453078,.00024301,97.2816,135.0796,101.5300,258.6215,0,U,67898,999,2447,.38022621E-3,.12224E-3,0
STARLINK-36878,2026-035W,2026-07-21T08:00:43.411392,15.33459207,.00021458,97.2825,135.1120,70.9985,289.1490,0,U,67899,999,2447,.40783817E-3,.13121E-3,0
STARLINK-36361,2026-035X,2026-07-21T08:04:38.056512,15.33452061,.00015487,97.2826,135.1129,99.2438,260.8980,0,U,67900,999,2447,.38402887E-3,.12346E-3,0
STARLINK-36336,2026-035Y,2026-07-21T13:10:01.974144,15.33455809,.00017386,97.2824,135.2827,92.8360,267.3081,0,U,67901,999,2450,.88691018E-3,.28677E-3,0
STARLINK-36876,2026-035Z,2026-07-21T12:54:22.073472,15.33452357,.00014386,97.2827,135.3004,88.4838,271.6569,0,U,67902,999,2450,.28496199E-3,.9138E-4,0
STARLINK-36257,2026-035AA,2026-07-21T07:25:28.932960,15.33444306,.0002255,97.2830,134.9961,135.6345,224.5079,0,U,67903,999,2446,.14552905E-3,.4626E-4,0
STARLINK-36814,2026-036A,2026-07-21T09:07:34.826880,15.27596664,.00011239,42.9972,210.6824,300.5955,59.4785,0,U,67904,999,2416,.41154698E-3,.11086E-3,0
STARLINK-36729,2026-036B,2026-07-21T07:29:43.217664,15.27591284,.00011911,42.9995,211.0153,275.4460,84.6256,0,U,67905,999,2415,.36392209E-3,.9769E-4,0
STARLINK-36763,2026-036C,2026-07-21T07:24:10.050624,15.27587129,.0001431,42.9993,210.9847,277.7646,82.3044,0,U,67906,999,2415,.39239934E-3,.10554E-3,0
STARLINK-36742,2026-036D,2026-07-21T08:52:46.708320,15.27589743,.00007565,42.9999,210.5858,306.5503,53.5279,0,U,67907,999,2416,.44742357E-3,.12074E-3,0
STARLINK-36827,2026-036E,2026-07-21T08:47:13.172352,15.27587207,.00022896,42.9991,210.5492,282.0819,77.9776,0,U,67908,999,2416,.3229889E-3,.8638E-4,0
STARLINK-36822,2026-036F,2026-07-21T10:15:49.419648,15.27583853,.00021188,43.0002,210.1567,261.9924,98.0687,0,U,67909,999,2417,.57610709E-3,.15627E-3,0
STARLINK-36847,2026-036G,2026-07-21T02:19:29.604288,15.27582616,.00018464,43.0014,211.9736,276.0018,84.0623,0,U,67910,999,2412,.31591422E-3,.8442E-4,0
STARLINK-36736,2026-036H,2026-07-21T10:01:00.923520,15.27585269,.00030201,43.0023,210.0679,252.7107,107.3414,0,U,67911,999,2417,.43800997E-3,.11813E-3,0
STARLINK-36676,2026-036J,2026-07-21T08:21:19.747008,15.27594173,.00019881,43.0043,210.4115,284.8294,75.2338,0,U,67912,999,2416,.48094794E-3,.13002E-3,0
STARLINK-36690,2026-036K,2026-07-21T08:15:45.673632,15.27590303,.00021258,43.0043,210.3793,294.8213,65.2417,0,U,67913,999,2416,.49203612E-3,.13306E-3,0
STARLINK-36724,2026-036L,2026-07-21T01:44:19.837248,15.27591836,.00011453,42.9990,211.7741,212.2058,147.8724,0,U,67914,999,2412,.55622277E-3,.15081E-3,0
STARLINK-36723,2026-036M,2026-07-21T09:44:21.932160,15.27589008,.00023751,43.0063,209.9738,276.2473,83.8108,0,U,67915,999,2417,.38343274E-3,.10307E-3,0
